[{"OBJECT_NAME":"KORSAT-7","OBJECT_ID":"2023-185B","EPOCH":"2026-03-09T23:44:55.136256","MEAN_MOTION":15.00898391,"ECCENTRICITY":0.00224341,"INCLINATION":97.6243,"RA_OF_ASC_NODE":135.089,"ARG_OF_PERICENTER":307.6562,"MEAN_ANOMALY":52.2627,"EPHEMERIS_TYPE":0,"CLASSIFICATION_TYPE":"U","NORAD_CAT_ID":58463,"ELEMENT_SET_NO":999,"REV_AT_EPOCH":12440,"BSTAR":0.00023536002,"MEAN_MOTION_DOT":2.951e-5,"MEAN_MOTION_DDOT":0},{"OBJECT_NAME":"SOAP","OBJECT_ID":"2025-052BF","EPOCH":"2026-03-10T00:02:28.605408","MEAN_MOTION":14.96239557,"ECCENTRICITY":0.00016838,"INCLINATION":97.698,"RA_OF_ASC_NODE":323.0105,"ARG_OF_PERICENTER":5.2797,"MEAN_ANOMALY":354.8442,"EPHEMERIS_TYPE":0,"CLASSIFICATION_TYPE":"U","NORAD_CAT_ID":63263,"ELEMENT_SET_NO":999,"REV_AT_EPOCH":5385,"BSTAR":0.00031886977,"MEAN_MOTION_DOT":3.541e-5,"MEAN_MOTION_DDOT":0}]
